LEMUR-2-ALISIA          
1 62706U 25009DB  26178.72227711  .00008224  00000+0  61682-3 0  9991
2 62706  97.6938 260.8190 0002830 181.1955 178.9264 15.02912487101743
LEMUR-2-ROUNDTRIPPER    
1 62711U 25009DG  26178.93925019  .00008413  00000+0  61351-3 0  9999
2 62711  97.7247 261.6039 0005435 105.4940 254.6886 15.03960612 79246
LEMUR-2-MYNAMEISJEFF    
1 62712U 25009DH  26178.80458221  .00007866  00000+0  57409-3 0  9992
2 62712  97.7290 261.8565 0003994 132.0598 228.0968 15.03954446 79226
LEMUR-2-LEIA-PHILIP     
1 63246U 25052AN  26178.49474522  .00001345  00000+0  12088-3 0  9990
2 63246  97.6819  70.2718 0003795 174.9771 185.1490 14.97338705 70213
LEMUR-2-LIA-MARTIN      
1 63248U 25052AQ  26178.96392708  .00004534  00000+0  38998-3 0  9990
2 63248  97.6875  71.2239 0004011 136.5296 223.6243 14.97882360 70297
LEMUR-2-DELOITTE-1      
1 63259U 25052BB  26178.94172907  .00003032  00000+0  26388-3 0  9999
2 63259  97.6921  71.5331 0003024  74.5991 285.5565 14.97677302 70307
LEMUR-2-EMERSONROSE     
1 63261U 25052BD  26178.43913153  .00004109  00000+0  34258-3 0  9993
2 63261  97.6879  71.6143 0002132  78.4960 281.6502 14.99149739 70276
LEMUR-2-MARACHE-FRAN    
1 63262U 25052BE  26178.94100422  .00004424  00000+0  35859-3 0  9995
2 63262  97.6919  72.4501 0004500 337.5931  22.5095 15.00192654 70374
LEMUR-2-THEFALCONER     
1 63264U 25052BG  26178.96971249  .00003642  00000+0  31781-3 0  9993
2 63264  97.6849  71.1679 0001430  18.5403 341.5871 14.97452295 70303
LEMUR-2-UNTITLED-SC     
1 63351U 25061A   26178.86521588  .00003610  00000+0  20447-3 0  9998
2 63351  97.5636 154.1494 0017419 224.2016 135.7824 15.13544656 69200
LEMUR-2-ESPERANZA       
1 63352U 25061B   26178.90781218  .00003122  00000+0  17693-3 0  9999
2 63352  97.5640 154.2876 0017035 223.2415 136.7480 15.13635358 69217
LEMUR-2-KREMPEL-BRO2    
1 63353U 25061C   26178.86560450  .00003510  00000+0  19590-3 0  9997
2 63353  97.5689 154.7927 0018137 215.4753 144.5274 15.14074347 69220
LEMUR-2-THERMORAPTOR    
1 63354U 25061D   26178.91319276  .00003186  00000+0  17780-3 0  9990
2 63354  97.5695 154.9178 0017878 214.1199 145.8884 15.14155077 69231
LEMUR-2-NEUROSPICY      
1 63355U 25061E   26178.88404820  .00004073  00000+0  22570-3 0  9996
2 63355  97.5621 154.5065 0015663 217.7204 142.2930 15.14271112 69230
LEMUR-2-TILLINFINITY    
1 63356U 25061F   26178.91518526  .00003272  00000+0  17900-3 0  9991
2 63356  97.5605 154.8357 0017198 204.9876 155.0525 15.14856622 69268
LEMUR-2-KREMPEL-BRO1    
1 63357U 25061G   26178.89003321  .00003882  00000+0  21276-3 0  9999
2 63357  97.5608 154.7237 0017815 206.8535 153.1776 15.14661792 69255
LEMUR-2-LANGER2SPACE    
1 63358U 25061H   26178.91867601  .00003269  00000+0  18149-3 0  9996
2 63358  97.5612 154.5619 0015564 215.4251 144.5948 15.14358542 69243
LEMUR-2-BALTO           
1 63395U 25052BH  26178.65892748  .00005711  00000+0  46128-3 0  9990
2 63395  97.6924  72.1467 0006515  29.9420 330.2175 15.00199146 70335
LEMUR-2-KRISH           
1 64561U 25135AK  26178.84126106  .00004878  00000+0  43665-3 0  9993
2 64561  97.7748 293.6444 0001081 104.5598 255.5743 14.96297108 55514
LEMUR-2-HUBBLE-4        
1 64565U 25135AP  26178.92454718  .00001837  00000+0  17933-3 0  9990
2 64565  97.7723 292.7008 0001313 230.2238 129.8866 14.93638895 55476
LEMUR-2-SEJONG-2        
1 64586U 25135BL  26178.93465343  .00005267  00000+0  46521-3 0  9996
2 64586  97.7699 293.8816 0002758 297.1678  62.9262 14.96782590 55555
LEMUR-2-HUBBLE-5        
1 64840U 25135BT  26178.87250776  .00001875  00000+0  18046-3 0  9996
2 64840  97.7727 293.3008 0004241 312.7858  47.3005 14.94167789 55503
LEMUR-2-KARENDARRELL    
1 64841U 25135BU  26178.85692913  .00008519  00000+0  68392-3 0  9999
2 64841  97.7688 295.0469 0010633 162.2687 197.8909 15.00264961 55614
LEMUR-2-LUCILLE-ROSE    
1 65403U 25135BV  26178.89709054  .00006921  00000+0  55622-3 0  9990
2 65403  97.7741 295.1171 0012527 243.8297 116.1638 15.00283074 50240
LEMUR-2-AFFIE-WAUWIE    
1 66295U 25248C   26178.65151695  .00023831  00000+0  87494-3 0  9992
2 66295  45.3940  58.2796 0007788 155.5140 204.6121 15.27582216 36197
LEMUR-2-DEANANDMAEVE    
1 66678U 25276N   26178.91499699  .00006023  00000+0  28385-3 0  9994
2 66678  97.4215 252.2128 0004694 334.7982  25.3023 15.19859433 32046
LEMUR-2-STAS-GORBUK     
1 66686U 25276W   26178.93204423  .00005649  00000+0  26932-3 0  9993
2 66686  97.4250 252.2835 0003967 334.5330  25.5708 15.19490098 32046
LEMUR-2-TEODOR          
1 66768U 25276DG  26178.77247989  .00005679  00000+0  25796-3 0  9990
2 66768  97.4154 252.3763 0002350 105.9853 254.1641 15.21160723 32055
LEMUR-2-LAILA           
1 66776U 25276DQ  26178.94216718  .00006264  00000+0  28233-3 0  9994
2 66776  97.4179 252.6711 0002720 121.0946 239.0557 15.21387113 32085
