OBJECT_NAME,OBJECT_ID,EPOCH,MEAN_MOTION,ECCENTRICITY,INCLINATION,RA_OF_ASC_NODE,ARG_OF_PERICENTER,MEAN_ANOMALY,EPHEMERIS_TYPE,CLASSIFICATION_TYPE,NORAD_CAT_ID,ELEMENT_SET_NO,REV_AT_EPOCH,BSTAR,MEAN_MOTION_DOT,MEAN_MOTION_DDOT
LEMUR-2-ALISIA,2025-009DB,2026-06-27T17:20:04.742304,15.02912487,.00028306,97.6938,260.8190,181.1955,178.9264,0,U,62706,999,10174,.61682387E-3,.8224E-4,0
LEMUR-2-ROUNDTRIPPER,2025-009DG,2026-06-27T22:32:31.216416,15.03960612,.00054354,97.7247,261.6039,105.4940,254.6886,0,U,62711,999,7924,.61350975E-3,.8413E-4,0
LEMUR-2-MYNAMEISJEFF,2025-009DH,2026-06-27T19:18:35.902944,15.03954446,.00039942,97.7290,261.8565,132.0598,228.0968,0,U,62712,999,7922,.57409238E-3,.7866E-4,0
LEMUR-2-LEIA-PHILIP,2025-052AN,2026-06-27T11:52:25.987008,14.97338705,.00037953,97.6819,70.2718,174.9771,185.1490,0,U,63246,999,7021,.1208792E-3,.1345E-4,0
LEMUR-2-LIA-MARTIN,2025-052AQ,2026-06-27T23:08:03.299712,14.97882360,.00040117,97.6875,71.2239,136.5296,223.6243,0,U,63248,999,7029,.38997786E-3,.4534E-4,0
LEMUR-2-DELOITTE-1,2025-052BB,2026-06-27T22:36:05.391648,14.97677302,.00030249,97.6921,71.5331,74.5991,285.5565,0,U,63259,999,7030,.26388369E-3,.3032E-4,0
LEMUR-2-EMERSONROSE,2025-052BD,2026-06-27T10:32:20.964192,14.99149739,.0002132,97.6879,71.6143,78.4960,281.6502,0,U,63261,999,7027,.34258E-3,.4109E-4,0
LEMUR-2-MARACHE-FRAN,2025-052BE,2026-06-27T22:35:02.764608,15.00192654,.00045006,97.6919,72.4501,337.5931,22.5095,0,U,63262,999,7037,.35858802E-3,.4424E-4,0
LEMUR-2-THEFALCONER,2025-052BG,2026-06-27T23:16:23.159136,14.97452295,.00014303,97.6849,71.1679,18.5403,341.5871,0,U,63264,999,7030,.31781308E-3,.3642E-4,0
LEMUR-2-UNTITLED-SC,2025-061A,2026-06-27T20:45:54.652032,15.13544656,.00174196,97.5636,154.1494,224.2016,135.7824,0,U,63351,999,6920,.20447287E-3,.361E-4,0
LEMUR-2-ESPERANZA,2025-061B,2026-06-27T21:47:14.972352,15.13635358,.00170358,97.5640,154.2876,223.2415,136.7480,0,U,63352,999,6921,.17692517E-3,.3122E-4,0
LEMUR-2-KREMPEL-BRO2,2025-061C,2026-06-27T20:46:28.228800,15.14074347,.0018137,97.5689,154.7927,215.4753,144.5274,0,U,63353,999,6922,.19589605E-3,.351E-4,0
LEMUR-2-THERMORAPTOR,2025-061D,2026-06-27T21:54:59.854464,15.14155077,.00178785,97.5695,154.9178,214.1199,145.8884,0,U,63354,999,6923,.17779647E-3,.3186E-4,0
LEMUR-2-NEUROSPICY,2025-061E,2026-06-27T21:13:01.764480,15.14271112,.00156631,97.5621,154.5065,217.7204,142.2930,0,U,63355,999,6923,.22569615E-3,.4073E-4,0
LEMUR-2-TILLINFINITY,2025-061F,2026-06-27T21:57:52.006464,15.14856622,.00171984,97.5605,154.8357,204.9876,155.0525,0,U,63356,999,6926,.17899684E-3,.3272E-4,0
LEMUR-2-KREMPEL-BRO1,2025-061G,2026-06-27T21:21:38.869344,15.14661792,.00178157,97.5608,154.7237,206.8535,153.1776,0,U,63357,999,6925,.21276196E-3,.3882E-4,0
LEMUR-2-LANGER2SPACE,2025-061H,2026-06-27T22:02:53.607264,15.14358542,.00155641,97.5612,154.5619,215.4251,144.5948,0,U,63358,999,6924,.18148571E-3,.3269E-4,0
LEMUR-2-BALTO,2025-052BH,2026-06-27T15:48:51.334272,15.00199146,.0006515,97.6924,72.1467,29.9420,330.2175,0,U,63395,999,7033,.4612842E-3,.5711E-4,0
LEMUR-2-KRISH,2025-135AK,2026-06-27T20:11:24.955584,14.96297108,.0001081,97.7748,293.6444,104.5598,255.5743,0,U,64561,999,5551,.43665314E-3,.4878E-4,0
LEMUR-2-HUBBLE-4,2025-135AP,2026-06-27T22:11:20.876352,14.93638895,.00013139,97.7723,292.7008,230.2238,129.8866,0,U,64565,999,5547,.17933067E-3,.1837E-4,0
LEMUR-2-SEJONG-2,2025-135BL,2026-06-27T22:25:54.056352,14.96782590,.00027581,97.7699,293.8816,297.1678,62.9262,0,U,64586,999,5555,.46521307E-3,.5267E-4,0
LEMUR-2-HUBBLE-5,2025-135BT,2026-06-27T20:56:24.670464,14.94167789,.0004241,97.7727,293.3008,312.7858,47.3005,0,U,64840,999,5550,.18046366E-3,.1875E-4,0
LEMUR-2-KARENDARRELL,2025-135BU,2026-06-27T20:33:58.676832,15.00264961,.00106339,97.7688,295.0469,162.2687,197.8909,0,U,64841,999,5561,.68392381E-3,.8519E-4,0
LEMUR-2-LUCILLE-ROSE,2025-135BV,2026-06-27T21:31:48.622656,15.00283074,.00125276,97.7741,295.1171,243.8297,116.1638,0,U,65403,999,5024,.55622132E-3,.6921E-4,0
LEMUR-2-AFFIE-WAUWIE,2025-248C,2026-06-27T15:38:11.064480,15.27582216,.00077884,45.3940,58.2796,155.5140,204.6121,0,U,66295,999,3619,.87493858E-3,.23831E-3,0
LEMUR-2-DEANANDMAEVE,2025-276N,2026-06-27T21:57:35.739936,15.19859433,.00046946,97.4215,252.2128,334.7982,25.3023,0,U,66678,999,3204,.28385409E-3,.6023E-4,0
LEMUR-2-STAS-GORBUK,2025-276W,2026-06-27T22:22:08.621472,15.19490098,.00039673,97.4250,252.2835,334.5330,25.5708,0,U,66686,999,3204,.26931512E-3,.5649E-4,0
LEMUR-2-TEODOR,2025-276DG,2026-06-27T18:32:22.262496,15.21160723,.000235,97.4154,252.3763,105.9853,254.1641,0,U,66768,999,3205,.25796305E-3,.5679E-4,0
LEMUR-2-LAILA,2025-276DQ,2026-06-27T22:36:43.244352,15.21387113,.00027204,97.4179,252.6711,121.0946,239.0557,0,U,66776,999,3208,.28233056E-3,.6264E-4,0
